LEMUR-2-STELLA          
1 60533U 24149BT  26167.48608207  .00009602  00000+0  56590-3 0  9998
2 60533  97.6744 249.9376 0001748  95.7986 264.3444 15.11800011100398
SATELIOT_2              
1 60534U 24149BU  26167.29074877  .00002214  00000+0  20061-3 0  9994
2 60534  97.6832 242.2630 0002106  96.3461 263.8000 14.96359638 99834
NIGHTJAR                
1 60535U 24149BV  26167.45789482  .00001917  00000+0  16300-3 0  9998
2 60535  97.6846 244.1754 0001321  77.4216 282.7154 14.99015365142764
LEMUR-2-MARHISYAM       
1 60536U 24149BW  26167.59856615  .00008457  00000+0  50656-3 0  9995
2 60536  97.6882 250.4990 0003284 119.2400 240.9159 15.11250851100397
SATELIOT_4              
1 60537U 24149BX  26167.50232820  .00001698  00000+0  15381-3 0  9999
2 60537  97.6744 241.9991 0003317  62.1617 297.9941 14.96669504 99876
PICO-02A021             
1 60538U 24149BY  26166.96827807  .00005072  00000+0  37893-3 0  9996
2 60538  97.6752 245.8092 0004963  31.2057 328.9462 15.03241779 99551
ICEYE-X43               
1 60539U 24149BZ  26167.16123904  .00003603  00000+0  29732-3 0  9998
2 60539  97.6784 244.1397 0008202  87.8913 272.3250 14.99611038 99960
HAWK-10A                
1 60540U 24149CA  26167.16667326  .00002044  00000+0  18485-3 0  9992
2 60540  97.6898 243.0954 0005054  81.3004 278.8789 14.96515280 99830
UMBRA-09                
1 60541U 24149CB  26167.21053020  .00012525  00000+0  61858-3 0  9996
2 60541  97.6977 254.3989 0000609 274.6306  85.4857 15.18018194100574
QPS-SAR-8 (AMATERU-IV)  
1 60542U 24149CC  26167.46188592  .00003762  00000+0  27572-3 0  9995
2 60542  97.6663 246.6182 0004847 109.4427 250.7323 15.04128776100166
ARCTIC WEATHER SATELLITE
1 60543U 24149CD  26167.48203091  .00000784  00000+0  87289-4 0  9993
2 60543  97.6801 237.9679 0003635 105.4664 254.6956 14.89805736 99193
CAPELLA-15 (ACADIA-5)   
1 60544U 24149CE  26167.45092511  .00002774  00000+0  27631-3 0  9999
2 60544  97.6771 240.3725 0004609  79.9656 280.2084 14.92391986 99747
HAWK-10B                
1 60545U 24149CF  26167.50083751  .00001712  00000+0  15560-3 0  9991
2 60545  97.6819 242.7798 0007017  94.5406 265.6617 14.96515256 99885
ICEYE-X39               
1 60546U 24149CG  26167.47654838  .00002870  00000+0  23618-3 0  9997
2 60546  97.6764 244.5096 0005191 120.5102 239.6635 14.99893149100012
UMBRA-10                
1 60547U 24149CH  26167.21008581  .00012840  00000+0  63402-3 0  9991
2 60547  97.6984 254.4261 0000568  70.6660 289.4635 15.18018125100588
ICEYE-X33               
1 60548U 24149CJ  26166.50240684  .00004173  00000+0  33257-3 0  9990
2 60548  97.7215 245.6519 0001591  99.4442 260.6961 15.00887084 99959
ICEYE-X40               
1 60549U 24149CK  26167.43418643  .00002279  00000+0  19817-3 0  9997
2 60549  97.6819 243.9418 0006636  84.2591 275.9388 14.97939639 99962
SATELIOT_1              
1 60550U 24149CL  26167.29184432  .00002456  00000+0  21250-3 0  9990
2 60550  97.6753 243.2042 0008345  83.3372 276.8800 14.98065054 99931
BRO-14                  
1 60551U 24149CM  26167.59341083  .00000580  00000+0  56574-4 0  9995
2 60551  97.6875 243.3819 0008050  98.2997 261.9137 14.96175257 99901
SATELIOT_3              
1 60552U 24149CN  26167.46798084  .00001629  00000+0  14269-3 0  9998
2 60552  97.6816 244.1691 0005868  88.1055 272.0839 14.98050657 99978
BRO-15                  
1 60553U 24149CP  26167.44209732  .00002169  00000+0  19746-3 0  9999
2 60553  97.6809 242.8353 0009688  90.3396 269.8936 14.96165146 99899
UM5-RIBAT               
1 60554U 24149CQ  26167.47224215  .00002533  00000+0  20269-3 0  9993
2 60554  97.6639 245.2823 0003538  62.8908 297.2676 15.01072712100084
UM5-EOSAT               
1 60555U 24149CR  26167.17228679  .00003868  00000+0  30328-3 0  9998
2 60555  97.6709 245.9198 0008773 117.5819 242.6298 15.01523738100061
KANYINI                 
1 60556U 24149CS  26167.50064948  .00031280  00000+0  50688-3 0  9993
2 60556  97.3733 254.3677 0002125 213.9963 146.1154 15.52729730102403
FLOCK 4BE-5             
1 60559U 24149CV  26167.18268909  .00013805  00000+0  34474-3 0  9991
2 60559  97.3851 251.1726 0001856 301.8418  58.2647 15.40278679102126
FLOCK 4BE-3             
1 60561U 24149CX  26167.17265017  .00010115  00000+0  24282-3 0  9997
2 60561  97.3703 251.0755 0002729 284.9128  75.1816 15.41556620102183
HYPERFIELD-1A           
1 60562U 24149CY  26167.16974036  .00005166  00000+0  17499-3 0  9997
2 60562  97.3805 247.3367 0003955 327.3187  32.7809 15.31014019101880
FLOCK 4BE-19            
1 60563U 24149CZ  26167.21977442  .00023755  00000+0  51531-3 0  9997
2 60563  97.3751 252.6514 0003297 285.6474  74.4411 15.44392019102277
PTD-4 (LISA-T)          
1 60565U 24149DB  26167.48193832  .00017284  00000+0  75851-3 0  9992
2 60565  97.6974 256.3505 0003076  65.4517 294.7039 15.22019104100714
ION SCV-012             
1 60573U 24149DK  26167.16509420  .00001119  00000+0  10765-3 0  9993
2 60573  97.6782 241.2072 0004864  88.1099 272.0679 14.94936437 99761
