OBJECT_NAME,OBJECT_ID,EPOCH,MEAN_MOTION,ECCENTRICITY,INCLINATION,RA_OF_ASC_NODE,ARG_OF_PERICENTER,MEAN_ANOMALY,EPHEMERIS_TYPE,CLASSIFICATION_TYPE,NORAD_CAT_ID,ELEMENT_SET_NO,REV_AT_EPOCH,BSTAR,MEAN_MOTION_DOT,MEAN_MOTION_DDOT
LEMUR-2-STELLA,2024-149BT,2026-06-16T11:39:57.490848,15.11800011,.00017485,97.6744,249.9376,95.7986,264.3444,0,U,60533,999,10039,.56590363E-3,.9602E-4,0
SATELIOT_2,2024-149BU,2026-06-16T06:58:40.693728,14.96359638,.0002106,97.6832,242.2630,96.3461,263.8000,0,U,60534,999,9983,.20061E-3,.2214E-4,0
NIGHTJAR,2024-149BV,2026-06-16T10:59:22.112448,14.99015365,.00013213,97.6846,244.1754,77.4216,282.7154,0,U,60535,999,14276,.16299643E-3,.1917E-4,0
LEMUR-2-MARHISYAM,2024-149BW,2026-06-16T14:21:56.115360,15.11250851,.00032845,97.6882,250.4990,119.2400,240.9159,0,U,60536,999,10039,.50655552E-3,.8457E-4,0
SATELIOT_4,2024-149BX,2026-06-16T12:03:21.156480,14.96669504,.0003317,97.6744,241.9991,62.1617,297.9941,0,U,60537,999,9987,.15380789E-3,.1698E-4,0
PICO-02A021,2024-149BY,2026-06-15T23:14:19.225248,15.03241779,.00049638,97.6752,245.8092,31.2057,328.9462,0,U,60538,999,9955,.3789323E-3,.5072E-4,0
ICEYE-X43,2024-149BZ,2026-06-16T03:52:11.053056,14.99611038,.00082026,97.6784,244.1397,87.8913,272.3250,0,U,60539,999,9996,.29731546E-3,.3603E-4,0
HAWK-10A,2024-149CA,2026-06-16T04:00:00.569664,14.96515280,.00050542,97.6898,243.0954,81.3004,278.8789,0,U,60540,999,9983,.18485208E-3,.2044E-4,0
UMBRA-09,2024-149CB,2026-06-16T05:03:09.809280,15.18018194,.00006091,97.6977,254.3989,274.6306,85.4857,0,U,60541,999,10057,.61858023E-3,.12525E-3,0
QPS-SAR-8 (AMATERU-IV),2024-149CC,2026-06-16T11:05:06.943488,15.04128776,.0004847,97.6663,246.6182,109.4427,250.7323,0,U,60542,999,10016,.27572142E-3,.3762E-4,0
ARCTIC WEATHER SATELLITE,2024-149CD,2026-06-16T11:34:07.470624,14.89805736,.00036359,97.6801,237.9679,105.4664,254.6956,0,U,60543,999,9919,.872893E-4,.784E-5,0
CAPELLA-15 (ACADIA-5),2024-149CE,2026-06-16T10:49:19.929504,14.92391986,.00046099,97.6771,240.3725,79.9656,280.2084,0,U,60544,999,9974,.27631088E-3,.2774E-4,0
HAWK-10B,2024-149CF,2026-06-16T12:01:12.360864,14.96515256,.0007017,97.6819,242.7798,94.5406,265.6617,0,U,60545,999,9988,.15560166E-3,.1712E-4,0
ICEYE-X39,2024-149CG,2026-06-16T11:26:13.780032,14.99893149,.00051912,97.6764,244.5096,120.5102,239.6635,0,U,60546,999,10001,.23618429E-3,.287E-4,0
UMBRA-10,2024-149CH,2026-06-16T05:02:31.413984,15.18018125,.00005683,97.6984,254.4261,70.6660,289.4635,0,U,60547,999,10058,.63402311E-3,.1284E-3,0
ICEYE-X33,2024-149CJ,2026-06-15T12:03:27.950976,15.00887084,.00015911,97.7215,245.6519,99.4442,260.6961,0,U,60548,999,9995,.33256737E-3,.4173E-4,0
ICEYE-X40,2024-149CK,2026-06-16T10:25:13.707552,14.97939639,.00066363,97.6819,243.9418,84.2591,275.9388,0,U,60549,999,9996,.19816804E-3,.2279E-4,0
SATELIOT_1,2024-149CL,2026-06-16T07:00:15.349248,14.98065054,.0008345,97.6753,243.2042,83.3372,276.8800,0,U,60550,999,9993,.2125E-3,.2456E-4,0
BRO-14,2024-149CM,2026-06-16T14:14:30.695712,14.96175257,.00080503,97.6875,243.3819,98.2997,261.9137,0,U,60551,999,9990,.56574115E-4,.58E-5,0
SATELIOT_3,2024-149CN,2026-06-16T11:13:53.544576,14.98050657,.00058686,97.6816,244.1691,88.1055,272.0839,0,U,60552,999,9997,.14269279E-3,.1629E-4,0
BRO-15,2024-149CP,2026-06-16T10:36:37.208448,14.96165146,.00096883,97.6809,242.8353,90.3396,269.8936,0,U,60553,999,9989,.19746391E-3,.2169E-4,0
UM5-RIBAT,2024-149CQ,2026-06-16T11:20:01.721760,15.01072712,.00035381,97.6639,245.2823,62.8908,297.2676,0,U,60554,999,10008,.20269403E-3,.2533E-4,0
UM5-EOSAT,2024-149CR,2026-06-16T04:08:05.578656,15.01523738,.00087739,97.6709,245.9198,117.5819,242.6298,0,U,60555,999,10006,.30328207E-3,.3868E-4,0
KANYINI,2024-149CS,2026-06-16T12:00:56.115072,15.52729730,.00021255,97.3733,254.3677,213.9963,146.1154,0,U,60556,999,10240,.50687647E-3,.3128E-3,0
FLOCK 4BE-5,2024-149CV,2026-06-16T04:23:04.337376,15.40278679,.00018565,97.3851,251.1726,301.8418,58.2647,0,U,60559,999,10212,.34473511E-3,.13805E-3,0
FLOCK 4BE-3,2024-149CX,2026-06-16T04:08:36.974688,15.41556620,.00027298,97.3703,251.0755,284.9128,75.1816,0,U,60561,999,10218,.24281539E-3,.10115E-3,0
HYPERFIELD-1A,2024-149CY,2026-06-16T04:04:25.567104,15.31014019,.00039555,97.3805,247.3367,327.3187,32.7809,0,U,60562,999,10188,.17499108E-3,.5166E-4,0
FLOCK 4BE-19,2024-149CZ,2026-06-16T05:16:28.509888,15.44392019,.0003297,97.3751,252.6514,285.6474,74.4411,0,U,60563,999,10227,.51531E-3,.23755E-3,0
PTD-4 (LISA-T),2024-149DB,2026-06-16T11:33:59.470848,15.22019104,.00030761,97.6974,256.3505,65.4517,294.7039,0,U,60565,999,10071,.75851066E-3,.17284E-3,0
ION SCV-012,2024-149DK,2026-06-16T03:57:44.138880,14.94936437,.00048649,97.6782,241.2072,88.1099,272.0679,0,U,60573,999,9976,.10765318E-3,.1119E-4,0
